METEOR 2-1 DEB          
1 57492U 75064F   26084.41871874  .00004836  00000+0  19210-2 0  9994
2 57492  81.2720  83.0815 0006418 351.0625   9.0440 14.28613992391022
HJ-2F                   
1 57519U 23116A   26095.85763006  .00010230  00000+0  45952-3 0  9990
2 57519  97.3873 102.3863 0006906 302.4059  57.6508 15.21325620147755
XRISM                   
1 57800U 23137A   26095.31685059  .00006438  00000+0  36174-3 0  9999
2 57800  31.0012 111.3941 0007823 306.0924  53.8990 15.11831629141820
METEOR-M2 4             
1 59051U 24039A   26095.87167196  .00000054  00000+0  44007-4 0  9992
2 59051  98.6950  56.1049 0007598  27.3270 332.8307 14.22421687108983
GRBBETA                 
1 60237U 24128C   26095.46607167  .00004907  00000+0  33997-3 0  9997
2 60237  61.9883 111.2937 0048963 119.3116 241.2882 15.06072619 95313
TRANSPORTER-11 OBJECT A 
1 60468U 24149A   26095.79757058  .00011369  00000+0  37309-3 0  9998
2 60468  97.3744 176.0136 0004815 114.2671 245.9074 15.31751600 90979
WARATAH SEED-1          
1 60469U 24149B   26095.75252070  .00017224  00000+0  52262-3 0  9990
2 60469  97.3702 176.3569 0003313 117.7460 242.4119 15.34165391 91009
PHISAT 2                
1 60470U 24149C   26095.80315581  .00009163  00000+0  31763-3 0  9991
2 60470  97.3769 175.4752 0003044 120.3962 239.7580 15.30040966 90923
LEMUR-2-TOMATOKECHUP    
1 60471U 24149D   26095.76051036  .00015256  00000+0  45746-3 0  9995
2 60471  97.3806 177.7046 0003179 120.8198 239.3358 15.34567467 91050
CONNECTA IOT-1          
1 60472U 24149E   26095.76995420  .00006066  00000+0  26101-3 0  9993
2 60472  97.3778 173.3070 0002862 138.6320 221.5134 15.22985777 90778
LOPEN                   
1 60473U 24149F   26095.74628625  .00019758  00000+0  53595-3 0  9991
2 60473  97.3785 178.6625 0002571 132.2537 227.8926 15.37653311 91128
ROCK                    
1 60474U 24149G   26095.79813905  .00020554  00000+0  55714-3 0  9995
2 60474  97.3781 178.7336 0002883 130.0786 230.0711 15.37667920 91133
CONNECTA IOT-3          
1 60475U 24149H   26095.72610739  .00005510  00000+0  23731-3 0  9998
2 60475  97.3753 173.0393 0004035 138.6674 221.4869 15.22992504 90775
QUBE                    
1 60476U 24149J   26095.85279876  .00026940  00000+0  59216-3 0  9993
2 60476  97.3780 181.0782 0003228 126.9881 233.1663 15.43975463 91298
WREN-1                  
1 60478U 24149L   26095.75590909  .00025672  00000+0  66918-3 0  9995
2 60478  97.3775 179.2629 0005340 152.4730 207.6799 15.38820890 91177
TOMORROW-S1             
1 60479U 24149M   26095.44882351  .00010519  00000+0  34579-3 0  9999
2 60479  97.3761 176.2037 0003952 130.4141 229.7446 15.31718967 90955
FLOCK 4BE-18            
1 60480U 24149N   26095.72774618  .00023021  00000+0  58660-3 0  9997
2 60480  97.3735 178.8278 0004891 148.0534 212.1009 15.39542075 91154
