[{"OBJECT_NAME":"METEOR 2-1 DEB","OBJECT_ID":"1975-064F","EPOCH":"2026-03-25T10:02:57.299136","MEAN_MOTION":14.28613992,"ECCENTRICITY":0.00064186,"INCLINATION":81.272,"RA_OF_ASC_NODE":83.0815,"ARG_OF_PERICENTER":351.0625,"MEAN_ANOMALY":9.044,"EPHEMERIS_TYPE":0,"CLASSIFICATION_TYPE":"U","NORAD_CAT_ID":57492,"ELEMENT_SET_NO":999,"REV_AT_EPOCH":39102,"BSTAR":0.0019210405,"MEAN_MOTION_DOT":4.836e-5,"MEAN_MOTION_DDOT":0},{"OBJECT_NAME":"HJ-2F","OBJECT_ID":"2023-116A","EPOCH":"2026-04-05T20:34:59.237184","MEAN_MOTION":15.2132562,"ECCENTRICITY":0.0006906,"INCLINATION":97.3873,"RA_OF_ASC_NODE":102.3863,"ARG_OF_PERICENTER":302.4059,"MEAN_ANOMALY":57.6508,"EPHEMERIS_TYPE":0,"CLASSIFICATION_TYPE":"U","NORAD_CAT_ID":57519,"ELEMENT_SET_NO":999,"REV_AT_EPOCH":14775,"BSTAR":0.00045952,"MEAN_MOTION_DOT":0.0001023,"MEAN_MOTION_DDOT":0},{"OBJECT_NAME":"XRISM","OBJECT_ID":"2023-137A","EPOCH":"2026-04-05T07:36:15.890976","MEAN_MOTION":15.11831629,"ECCENTRICITY":0.0007823,"INCLINATION":31.0012,"RA_OF_ASC_NODE":111.3941,"ARG_OF_PERICENTER":306.0924,"MEAN_ANOMALY":53.899,"EPHEMERIS_TYPE":0,"CLASSIFICATION_TYPE":"U","NORAD_CAT_ID":57800,"ELEMENT_SET_NO":999,"REV_AT_EPOCH":14182,"BSTAR":0.00036174,"MEAN_MOTION_DOT":6.438e-5,"MEAN_MOTION_DDOT":0},{"OBJECT_NAME":"METEOR-M2 4","OBJECT_ID":"2024-039A","EPOCH":"2026-04-05T20:55:12.457344","MEAN_MOTION":14.22421687,"ECCENTRICITY":0.0007598,"INCLINATION":98.695,"RA_OF_ASC_NODE":56.1049,"ARG_OF_PERICENTER":27.327,"MEAN_ANOMALY":332.8307,"EPHEMERIS_TYPE":0,"CLASSIFICATION_TYPE":"U","NORAD_CAT_ID":59051,"ELEMENT_SET_NO":999,"REV_AT_EPOCH":10898,"BSTAR":4.4007e-5,"MEAN_MOTION_DOT":5.4e-7,"MEAN_MOTION_DDOT":0},{"OBJECT_NAME":"GRBBETA","OBJECT_ID":"2024-128C","EPOCH":"2026-04-05T11:11:08.592288","MEAN_MOTION":15.06072619,"ECCENTRICITY":0.00489634,"INCLINATION":61.9883,"RA_OF_ASC_NODE":111.2937,"ARG_OF_PERICENTER":119.3116,"MEAN_ANOMALY":241.2882,"EPHEMERIS_TYPE":0,"CLASSIFICATION_TYPE":"U","NORAD_CAT_ID":60237,"ELEMENT_SET_NO":999,"REV_AT_EPOCH":9531,"BSTAR":0.00033997294,"MEAN_MOTION_DOT":4.907e-5,"MEAN_MOTION_DDOT":0},{"OBJECT_NAME":"TRANSPORTER-11 OBJECT A","OBJECT_ID":"2024-149A","EPOCH":"2026-04-05T19:08:30.098112","MEAN_MOTION":15.317516,"ECCENTRICITY":0.0004815,"INCLINATION":97.3744,"RA_OF_ASC_NODE":176.0136,"ARG_OF_PERICENTER":114.2671,"MEAN_ANOMALY":245.9074,"EPHEMERIS_TYPE":0,"CLASSIFICATION_TYPE":"U","NORAD_CAT_ID":60468,"ELEMENT_SET_NO":999,"REV_AT_EPOCH":9097,"BSTAR":0.00037309,"MEAN_MOTION_DOT":0.00011369,"MEAN_MOTION_DDOT":0},{"OBJECT_NAME":"WARATAH SEED-1","OBJECT_ID":"2024-149B","EPOCH":"2026-04-05T18:03:37.788480","MEAN_MOTION":15.34165391,"ECCENTRICITY":0.0003313,"INCLINATION":97.3702,"RA_OF_ASC_NODE":176.3569,"ARG_OF_PERICENTER":117.746,"MEAN_ANOMALY":242.4119,"EPHEMERIS_TYPE":0,"CLASSIFICATION_TYPE":"U","NORAD_CAT_ID":60469,"ELEMENT_SET_NO":999,"REV_AT_EPOCH":9100,"BSTAR":0.00052262,"MEAN_MOTION_DOT":0.00017224,"MEAN_MOTION_DDOT":0},{"OBJECT_NAME":"PHISAT 2","OBJECT_ID":"2024-149C","EPOCH":"2026-04-05T19:16:32.661984","MEAN_MOTION":15.30040966,"ECCENTRICITY":0.0003044,"INCLINATION":97.3769,"RA_OF_ASC_NODE":175.4752,"ARG_OF_PERICENTER":120.3962,"MEAN_ANOMALY":239.758,"EPHEMERIS_TYPE":0,"CLASSIFICATION_TYPE":"U","NORAD_CAT_ID":60470,"ELEMENT_SET_NO":999,"REV_AT_EPOCH":9092,"BSTAR":0.00031763,"MEAN_MOTION_DOT":9.163e-5,"MEAN_MOTION_DDOT":0},{"OBJECT_NAME":"LEMUR-2-TOMATOKECHUP","OBJECT_ID":"2024-149D","EPOCH":"2026-04-05T18:15:08.095104","MEAN_MOTION":15.34567467,"ECCENTRICITY":0.0003179,"INCLINATION":97.3806,"RA_OF_ASC_NODE":177.7046,"ARG_OF_PERICENTER":120.8198,"MEAN_ANOMALY":239.3358,"EPHEMERIS_TYPE":0,"CLASSIFICATION_TYPE":"U","NORAD_CAT_ID":60471,"ELEMENT_SET_NO":999,"REV_AT_EPOCH":9105,"BSTAR":0.00045746,"MEAN_MOTION_DOT":0.00015256,"MEAN_MOTION_DDOT":0},{"OBJECT_NAME":"CONNECTA IOT-1","OBJECT_ID":"2024-149E","EPOCH":"2026-04-05T18:28:44.042880","MEAN_MOTION":15.22985777,"ECCENTRICITY":0.0002862,"INCLINATION":97.3778,"RA_OF_ASC_NODE":173.307,"ARG_OF_PERICENTER":138.632,"MEAN_ANOMALY":221.5134,"EPHEMERIS_TYPE":0,"CLASSIFICATION_TYPE":"U","NORAD_CAT_ID":60472,"ELEMENT_SET_NO":999,"REV_AT_EPOCH":9077,"BSTAR":0.00026101,"MEAN_MOTION_DOT":6.066e-5,"MEAN_MOTION_DDOT":0},{"OBJECT_NAME":"LOPEN","OBJECT_ID":"2024-149F","EPOCH":"2026-04-05T17:54:39.132000","MEAN_MOTION":15.37653311,"ECCENTRICITY":0.0002571,"INCLINATION":97.3785,"RA_OF_ASC_NODE":178.6625,"ARG_OF_PERICENTER":132.2537,"MEAN_ANOMALY":227.8926,"EPHEMERIS_TYPE":0,"CLASSIFICATION_TYPE":"U","NORAD_CAT_ID":60473,"ELEMENT_SET_NO":999,"REV_AT_EPOCH":9112,"BSTAR":0.00053595,"MEAN_MOTION_DOT":0.00019758,"MEAN_MOTION_DDOT":0},{"OBJECT_NAME":"ROCK","OBJECT_ID":"2024-149G","EPOCH":"2026-04-05T19:09:19.213920","MEAN_MOTION":15.3766792,"ECCENTRICITY":0.0002883,"INCLINATION":97.3781,"RA_OF_ASC_NODE":178.7336,"ARG_OF_PERICENTER":130.0786,"MEAN_ANOMALY":230.0711,"EPHEMERIS_TYPE":0,"CLASSIFICATION_TYPE":"U","NORAD_CAT_ID":60474,"ELEMENT_SET_NO":999,"REV_AT_EPOCH":9113,"BSTAR":0.00055714,"MEAN_MOTION_DOT":0.00020554,"MEAN_MOTION_DDOT":0},{"OBJECT_NAME":"CONNECTA IOT-3","OBJECT_ID":"2024-149H","EPOCH":"2026-04-05T17:25:35.678496","MEAN_MOTION":15.22992504,"ECCENTRICITY":0.0004035,"INCLINATION":97.3753,"RA_OF_ASC_NODE":173.0393,"ARG_OF_PERICENTER":138.6674,"MEAN_ANOMALY":221.4869,"EPHEMERIS_TYPE":0,"CLASSIFICATION_TYPE":"U","NORAD_CAT_ID":60475,"ELEMENT_SET_NO":999,"REV_AT_EPOCH":9077,"BSTAR":0.00023731,"MEAN_MOTION_DOT":5.51e-5,"MEAN_MOTION_DDOT":0},{"OBJECT_NAME":"QUBE","OBJECT_ID":"2024-149J","EPOCH":"2026-04-05T20:28:01.812864","MEAN_MOTION":15.43975463,"ECCENTRICITY":0.0003228,"INCLINATION":97.378,"RA_OF_ASC_NODE":181.0782,"ARG_OF_PERICENTER":126.9881,"MEAN_ANOMALY":233.1663,"EPHEMERIS_TYPE":0,"CLASSIFICATION_TYPE":"U","NORAD_CAT_ID":60476,"ELEMENT_SET_NO":999,"REV_AT_EPOCH":9129,"BSTAR":0.00059216,"MEAN_MOTION_DOT":0.0002694,"MEAN_MOTION_DDOT":0},{"OBJECT_NAME":"WREN-1","OBJECT_ID":"2024-149L","EPOCH":"2026-04-05T18:08:30.545376","MEAN_MOTION":15.3882089,"ECCENTRICITY":0.000534,"INCLINATION":97.3775,"RA_OF_ASC_NODE":179.2629,"ARG_OF_PERICENTER":152.473,"MEAN_ANOMALY":207.6799,"EPHEMERIS_TYPE":0,"CLASSIFICATION_TYPE":"U","NORAD_CAT_ID":60478,"ELEMENT_SET_NO":999,"REV_AT_EPOCH":9117,"BSTAR":0.00066918,"MEAN_MOTION_DOT":0.00025672,"MEAN_MOTION_DDOT":0},{"OBJECT_NAME":"TOMORROW-S1","OBJECT_ID":"2024-149M","EPOCH":"2026-04-05T10:46:18.351264","MEAN_MOTION":15.31718967,"ECCENTRICITY":0.00039529,"INCLINATION":97.3761,"RA_OF_ASC_NODE":176.2037,"ARG_OF_PERICENTER":130.4141,"MEAN_ANOMALY":229.7446,"EPHEMERIS_TYPE":0,"CLASSIFICATION_TYPE":"U","NORAD_CAT_ID":60479,"ELEMENT_SET_NO":999,"REV_AT_EPOCH":9095,"BSTAR":0.00034579386,"MEAN_MOTION_DOT":0.00010519,"MEAN_MOTION_DDOT":0},{"OBJECT_NAME":"FLOCK 4BE-18","OBJECT_ID":"2024-149N","EPOCH":"2026-04-05T17:27:57.269952","MEAN_MOTION":15.39542075,"ECCENTRICITY":0.0004891,"INCLINATION":97.3735,"RA_OF_ASC_NODE":178.8278,"ARG_OF_PERICENTER":148.0534,"MEAN_ANOMALY":212.1009,"EPHEMERIS_TYPE":0,"CLASSIFICATION_TYPE":"U","NORAD_CAT_ID":60480,"ELEMENT_SET_NO":999,"REV_AT_EPOCH":9115,"BSTAR":0.0005866,"MEAN_MOTION_DOT":0.00023021,"MEAN_MOTION_DDOT":0}]
